{
  "norad_id": 59031,
  "name": "STARLINK-31211",
  "history": [
    {
      "epoch": "2026-03-28T20:42:52.398144Z",
      "apogee_km": 483.90742183632483,
      "perigee_km": 482.2017296105996,
      "latitude_deg": -2.0008151942910763e-05,
      "longitude_deg": 141.472900605881,
      "height_km": 482.79936106990084,
      "semi_major_axis_km": 6861.191575723462,
      "eccentricity": 0.0001243,
      "inclination_deg": 43.0025,
      "raan_deg": 278.4687,
      "arg_perigee_deg": 272.155,
      "mean_anomaly_deg": 87.9159,
      "mean_motion_rev_day": 15.2757817
    },
    {
      "epoch": "2026-03-30T11:56:47.126688Z",
      "apogee_km": 483.9458575050876,
      "perigee_km": 482.165378020778,
      "latitude_deg": 1.8041523614856835e-05,
      "longitude_deg": -97.8476890003518,
      "height_km": 482.74072255095535,
      "semi_major_axis_km": 6861.192617762933,
      "eccentricity": 0.00012975,
      "inclination_deg": 43.0031,
      "raan_deg": 269.2373,
      "arg_perigee_deg": 275.9228,
      "mean_anomaly_deg": 84.1476,
      "mean_motion_rev_day": 15.27577822
    },
    {
      "epoch": "2026-03-30T19:47:34.137024Z",
      "apogee_km": 483.97977010477734,
      "perigee_km": 482.1378134825118,
      "latitude_deg": -5.959228995529146e-05,
      "longitude_deg": 142.28701233558547,
      "height_km": 482.81423726413567,
      "semi_major_axis_km": 6861.195791793644,
      "eccentricity": 0.00013423,
      "inclination_deg": 43.0033,
      "raan_deg": 267.3902,
      "arg_perigee_deg": 271.343,
      "mean_anomaly_deg": 88.7267,
      "mean_motion_rev_day": 15.27576762
    },
    {
      "epoch": "2026-03-31T19:19:54.609024Z",
      "apogee_km": 483.8811176811714,
      "perigee_km": 482.21933813457144,
      "latitude_deg": 1.5828425337254483e-05,
      "longitude_deg": 142.69628089093925,
      "height_km": 482.99490991923744,
      "semi_major_axis_km": 6861.187227907871,
      "eccentricity": 0.0001211,
      "inclination_deg": 43.0032,
      "raan_deg": 261.8514,
      "arg_perigee_deg": 258.3468,
      "mean_anomaly_deg": 101.7248,
      "mean_motion_rev_day": 15.27579622
    },
    {
      "epoch": "2026-04-01T18:52:16.046976Z",
      "apogee_km": 483.8929998644935,
      "perigee_km": 482.2476823440966,
      "latitude_deg": 3.845420934386218e-05,
      "longitude_deg": 143.10045724010703,
      "height_km": 482.9926928419618,
      "semi_major_axis_km": 6861.207341104295,
      "eccentricity": 0.0001199,
      "inclination_deg": 43.0029,
      "raan_deg": 256.3116,
      "arg_perigee_deg": 259.8102,
      "mean_anomaly_deg": 100.2615,
      "mean_motion_rev_day": 15.27572905
    },
    {
      "epoch": "2026-04-02T18:24:35.744832Z",
      "apogee_km": 483.7665576631098,
      "perigee_km": 482.2941511488534,
      "latitude_deg": -2.3867072589350773e-05,
      "longitude_deg": 143.51151281330036,
      "height_km": 483.1863702237777,
      "semi_major_axis_km": 6861.167354405981,
      "eccentricity": 0.0001073,
      "inclination_deg": 43.0016,
      "raan_deg": 250.7715,
      "arg_perigee_deg": 238.9611,
      "mean_anomaly_deg": 121.1135,
      "mean_motion_rev_day": 15.27586259
    },
    {
      "epoch": "2026-04-02T18:24:35.745696Z",
      "apogee_km": 483.7663518280888,
      "perigee_km": 482.2943569838744,
      "latitude_deg": -2.588641248970884e-05,
      "longitude_deg": 143.51150705005466,
      "height_km": 483.1862641059536,
      "semi_major_axis_km": 6861.167354405981,
      "eccentricity": 0.00010727,
      "inclination_deg": 43.0016,
      "raan_deg": 250.7715,
      "arg_perigee_deg": 238.9611,
      "mean_anomaly_deg": 121.1135,
      "mean_motion_rev_day": 15.27586259
    },
    {
      "epoch": "2026-04-03T16:22:46.891488Z",
      "apogee_km": 483.7779800948474,
      "perigee_km": 482.27812941387765,
      "latitude_deg": 1.8741618845590206e-05,
      "longitude_deg": 167.8923478579259,
      "height_km": 483.0395839037485,
      "semi_major_axis_km": 6861.165054754362,
      "eccentricity": 0.0001093,
      "inclination_deg": 43.0013,
      "raan_deg": 245.601,
      "arg_perigee_deg": 251.7357,
      "mean_anomaly_deg": 108.3376,
      "mean_motion_rev_day": 15.27587027
    },
    {
      "epoch": "2026-04-04T19:03:27.725760Z",
      "apogee_km": 483.79857441913464,
      "perigee_km": 482.3357656900789,
      "latitude_deg": 2.563605819374604e-05,
      "longitude_deg": 120.35068471099957,
      "height_km": 483.1348382955456,
      "semi_major_axis_km": 6861.204170054606,
      "eccentricity": 0.0001066,
      "inclination_deg": 43.0023,
      "raan_deg": 239.3251,
      "arg_perigee_deg": 246.5454,
      "mean_anomaly_deg": 113.5286,
      "mean_motion_rev_day": 15.27573964
    },
    {
      "epoch": "2026-04-05T10:45:02.287296Z",
      "apogee_km": 483.8698688591903,
      "perigee_km": 482.36176548997537,
      "latitude_deg": 3.8928317720665564e-07,
      "longitude_deg": -119.38063549782592,
      "height_km": 483.00028449988406,
      "semi_major_axis_km": 6861.252817174583,
      "eccentricity": 0.0001099,
      "inclination_deg": 43.0017,
      "raan_deg": 235.6323,
      "arg_perigee_deg": 261.7766,
      "mean_anomaly_deg": 98.2961,
      "mean_motion_rev_day": 15.27557718
    },
    {
      "epoch": "2026-04-07T09:49:42.918528Z",
      "apogee_km": 483.7842341569358,
      "perigee_km": 482.3282889468337,
      "latitude_deg": 5.393233336618371e-05,
      "longitude_deg": -118.56030270750831,
      "height_km": 483.2147351513975,
      "semi_major_axis_km": 6861.1932615518845,
      "eccentricity": 0.0001061,
      "inclination_deg": 43.003,
      "raan_deg": 224.5553,
      "arg_perigee_deg": 238.3558,
      "mean_anomaly_deg": 121.7191,
      "mean_motion_rev_day": 15.27577607
    },
    {
      "epoch": "2026-04-07T16:06:20.248416Z",
      "apogee_km": 483.7737833345982,
      "perigee_km": 482.2547244469861,
      "latitude_deg": -2.9535677461802532e-05,
      "longitude_deg": 145.54877760804555,
      "height_km": 483.0657061333126,
      "semi_major_axis_km": 6861.151253890792,
      "eccentricity": 0.0001107,
      "inclination_deg": 43.0018,
      "raan_deg": 223.0778,
      "arg_perigee_deg": 248.7809,
      "mean_anomaly_deg": 111.2924,
      "mean_motion_rev_day": 15.27591636
    },
    {
      "epoch": "2026-04-08T09:22:04.675296Z",
      "apogee_km": 483.7110271228448,
      "perigee_km": 482.4226302678926,
      "latitude_deg": 2.2995896217527995e-05,
      "longitude_deg": -118.15791968834738,
      "height_km": 483.14542892135415,
      "semi_major_axis_km": 6861.203828695368,
      "eccentricity": 9.389e-05,
      "inclination_deg": 43.0011,
      "raan_deg": 219.0151,
      "arg_perigee_deg": 242.0118,
      "mean_anomaly_deg": 118.0639,
      "mean_motion_rev_day": 15.27574078
    },
    {
      "epoch": "2026-04-09T07:20:15.615456Z",
      "apogee_km": 483.8494620890997,
      "perigee_km": 482.26864251864936,
      "latitude_deg": 9.606529379398015e-06,
      "longitude_deg": -93.77488448737654,
      "height_km": 483.1798525710935,
      "semi_major_axis_km": 6861.196052303874,
      "eccentricity": 0.0001152,
      "inclination_deg": 43.0017,
      "raan_deg": 213.846,
      "arg_perigee_deg": 244.1793,
      "mean_anomaly_deg": 115.894,
      "mean_motion_rev_day": 15.27576675
    },
    {
      "epoch": "2026-04-10T06:52:36.593760Z",
      "apogee_km": 483.6570880865638,
      "perigee_km": 482.49932663247455,
      "latitude_deg": 1.908615765109854e-05,
      "longitude_deg": -93.36530565881799,
      "height_km": 482.74383947042435,
      "semi_major_axis_km": 6861.215207359519,
      "eccentricity": 8.437e-05,
      "inclination_deg": 43.0027,
      "raan_deg": 208.3097,
      "arg_perigee_deg": 281.0437,
      "mean_anomaly_deg": 79.032,
      "mean_motion_rev_day": 15.27570278
    },
    {
      "epoch": "2026-04-11T14:15:44.669664Z",
      "apogee_km": 483.5798367632551,
      "perigee_km": 482.55477284011795,
      "latitude_deg": -2.598617684602844e-05,
      "longitude_deg": 147.1756342192607,
      "height_km": 482.7960345566953,
      "semi_major_axis_km": 6861.204304801686,
      "eccentricity": 7.47e-05,
      "inclination_deg": 43.0016,
      "raan_deg": 200.9233,
      "arg_perigee_deg": 275.3275,
      "mean_anomaly_deg": 84.7491,
      "mean_motion_rev_day": 15.27573919
    }
  ]
}